NORAD_CAT_ID,OBJECT_NAME,OBJECT_TYPE,EPOCH,MEAN_MOTION,ECCENTRICITY,INCLINATION,RA_OF_ASC_NODE,ARG_OF_PERICENTER,MEAN_ANOMALY,BSTAR,MEAN_MOTION_DOT,MEAN_MOTION_DDOT,TLE_LINE0,TLE_LINE1,TLE_LINE2,SEMIMAJOR_AXIS,PERIOD,APOGEE,PERIGEE,DECAYED
53932.0,STARLINK-4772,PAYLOAD,2022-12-26 04:05:13,15.73207405,0.000438,53.2125,156.6631,7.3126,352.7957,2.5859e-06,-2.62e-06,0.0,0 STARLINK-4772,1 53932U 22119AY  22360.17029073 -.00000262  00000-0  25859-5 0  9994,2 53932  53.2125 156.6631 0004380   7.3126 352.7957 15.73207405 14944,6727.874,91.533,352.686,346.792,0.0
53932.0,STARLINK-4772,PAYLOAD,2022-12-26 19:20:00,15.7321521,0.0004218,53.2124,153.519,357.2711,2.8286,-7.2359e-06,-1.642e-05,0.0,0 STARLINK-4772,1 53932U 22119AY  22360.80556228 -.00001642  00000-0 -72359-5 0  9992,2 53932  53.2124 153.5190 0004218 357.2711   2.8286 15.73215210 15476,6727.852,91.532,352.555,346.879,0.0
53932.0,STARLINK-4772,PAYLOAD,2022-12-26 22:22:56,15.73251523,0.0004194,53.2125,152.8904,349.0276,11.0652,8.216299999999999e-05,0.00010952,0.0,0 STARLINK-4772,1 53932U 22119AY  22360.93260363  .00010952  00000-0  82163-4 0  9993,2 53932  53.2125 152.8904 0004194 349.0276  11.0652 15.73251523 15061,6727.748000000001,91.53,352.435,346.792,0.0
53932.0,STARLINK-4772,PAYLOAD,2022-12-27 09:03:18,15.73238649,0.0004407,53.2126,150.6887,356.4808,3.6181,7.2494e-05,9.582e-05,0.0,0 STARLINK-4772,1 53932U 22119AY  22361.37730009  .00009582  00000-0  72494-4 0  9994,2 53932  53.2126 150.6887 0004407 356.4808   3.6181 15.73238649 15134,6727.785,91.531,352.615,346.685,0.0
53932.0,STARLINK-4772,PAYLOAD,2022-12-27 19:43:40,15.73224595,0.0004658,53.2127,148.4891,354.8751,5.2221,5.0895e-05,6.534e-05,0.0,0 STARLINK-4772,1 53932U 22119AY  22361.82199435  .00006534  00000-0  50895-4 0  9991,2 53932  53.2127 148.4891 0004658 354.8751   5.2221 15.73224595 15208,6727.825,91.532,352.824,346.556,0.0
53932.0,STARLINK-4772,PAYLOAD,2022-12-28 04:52:25,15.73382349,0.000558,53.2126,146.6011,287.9783,72.0629,0.00031533,0.00044246,0.0,0 STARLINK-4772,1 53932U 22119AY  22362.20306952  .00044246  00000-0  31533-3 0  9997,2 53932  53.2126 146.6011 0005580 287.9783  72.0629 15.73382349 15269,6727.375,91.523,352.994,345.486,0.0
53932.0,STARLINK-4772,PAYLOAD,2022-12-29 14:28:02,15.71063838,0.0005862,53.212,139.6989,285.3337,74.7034,-0.0022,-0.00273952,0.0,0 STARLINK-4772,1 53932U 22119AY  22363.60280216 -.00273952  00000-0 -22000-2 0  9994,2 53932  53.2120 139.6989 0005862 285.3337  74.7034 15.71063838 15489,6733.9919999999975,91.658,359.805,351.91,0.0
53932.0,STARLINK-4772,PAYLOAD,2022-12-30 18:01:23,15.67408706,0.000307,53.21100000000001,134.0661,264.0876,95.9791,-0.0051267,-0.0053097,0.0,0 STARLINK-4772,1 53932U 22119AY  22364.75096663 -.00530970  00000-0 -51267-2 0  9995,2 53932  53.2110 134.0661 0003070 264.0876  95.9791 15.67408706 15662,6744.456999999999,91.871,368.393,364.252,0.0
53932.0,STARLINK-4772,PAYLOAD,2022-12-31 06:00:00,15.64833251,0.0001295,53.2167,131.6076,48.0302,245.9128,-0.012645,-0.01137808,0.0,0 STARLINK-4772,1 53932U 22119AY  22365.25001157 -.01137808  00000-0 -12645-1 0  9995,2 53932  53.2167 131.6076 0001295  48.0302 245.9128 15.64833251 15742,6751.855,92.023,374.595,372.846,0.0
53932.0,STARLINK-4772,PAYLOAD,2022-12-31 14:00:01,15.64032936,0.0001088999999999,53.2163,129.9808,60.5432,311.7675,-0.013281,-0.01155472,0.0,0 STARLINK-4772,1 53932U 22119AY  22365.58334491 -.01155472  00000-0 -13281-1 0  9995,2 53932  53.2163 129.9808 0001089  60.5432 311.7675 15.64032936  1302,6754.158,92.07,376.759,375.288,0.0
53932.0,STARLINK-4772,PAYLOAD,2022-12-31 22:00:00,15.63211004,0.0001476,53.2161,128.3549,38.4347,51.2772,-0.0135699999999999,-0.01144048,0.0,0 STARLINK-4772,1 53932U 22119AY  22365.91667824 -.01144048  00000-0 -13570-1 0  9999,2 53932  53.2161 128.3549 0001476  38.4347  51.2772 15.63211004  1302,6756.526,92.118,379.388,377.394,0.0
53932.0,STARLINK-4772,PAYLOAD,2023-01-01 14:00:01,15.61569884,0.0001341999999999,53.2165,125.1081,59.8891,181.6902,-0.014205,-0.01124719,0.0,0 STARLINK-4772,1 53932U 22119AY  23001.58334491 -.01124719  00000-0 -14205-1 0  9990,2 53932  53.2165 125.1081 0001342  59.8891 181.6902 15.61569884  1308,6761.259,92.215,384.031,382.216,0.0
53932.0,STARLINK-4772,PAYLOAD,2023-01-01 22:00:00,15.60767145,0.0001323,53.2161,123.4881,43.5813,272.4564,-0.014871,-0.01139677,0.0,0 STARLINK-4772,1 53932U 22119AY  23001.91667824 -.01139677  00000-0 -14871-1 0  9994,2 53932  53.2161 123.4881 0001323  43.5813 272.4564 15.60767145 16001,6763.5769999999975,92.262,386.337,384.547,0.0
53932.0,STARLINK-4772,PAYLOAD,2023-01-02 00:00:00,15.60560625,0.0001447,53.217,123.0821,42.8894,21.6138,-0.014929,-0.01135487,0.0,0 STARLINK-4772,1 53932U 22119AY  23002.00001157 -.01135487  00000-0 -14929-1 0  9995,2 53932  53.2170 123.0821 0001447  42.8894  21.6138 15.60560625  1301,6764.174,92.275,387.017,385.06,0.0
53932.0,STARLINK-4772,PAYLOAD,2023-01-02 14:00:01,15.59135196,0.0001513,53.2168,120.2532,48.3939,53.6401,-0.015737,-0.01133295,0.0,0 STARLINK-4772,1 53932U 22119AY  23002.58334491 -.01133295  00000-0 -15737-1 0  9991,2 53932  53.2168 120.2532 0001513  48.3939  53.6401 15.59135196  1308,6768.295999999999,92.359,391.185,389.137,0.0
53932.0,STARLINK-4772,PAYLOAD,2023-01-02 22:00:00,15.5832466,0.0001675999999999,53.2162,118.6388,42.1747,131.3879,-0.016294,-0.0113732,0.0,0 STARLINK-4772,1 53932U 22119AY  23002.91667824 -.01137320  00000-0 -16294-1 0  9999,2 53932  53.2162 118.6388 0001676  42.1747 131.3879 15.58324660 16169,6770.642,92.407,393.642,391.37300000000016,0.0
53932.0,STARLINK-4772,PAYLOAD,2023-01-03 14:00:01,15.56695516,0.0001337,53.2164,115.4161,48.1934,265.4965,-0.0172879999999999,-0.01134806,0.0,0 STARLINK-4772,1 53932U 22119AY  23003.58334491 -.01134806  00000-0 -17288-1 0  9994,2 53932  53.2164 115.4161 0001337  48.1934 265.4965 15.56695516  1307,6775.365,92.504,398.136,396.325,0.0
53932.0,STARLINK-4772,PAYLOAD,2023-01-03 22:00:00,15.55887623,0.0001621,53.2161,113.8074,35.5195,346.7644,-0.017946,-0.01142231,0.0,0 STARLINK-4772,1 53932U 22119AY  23003.91667824 -.01142231  00000-0 -17946-1 0  9992,2 53932  53.2161 113.8074 0001621  35.5195 346.7644 15.55887623 16320,6777.7109999999975,92.552,400.674,398.477,0.0
53932.0,STARLINK-4772,PAYLOAD,2023-01-04 14:00:01,15.54265516,0.0001718,53.2167,110.5966,44.3618,112.2437,-0.01918,-0.01148844,0.0,0 STARLINK-4772,1 53932U 22119AY  23004.58335648 -.01148844  00000-0 -19180-1 0  9990,2 53932  53.2167 110.5966 0001718  44.3618 112.2437 15.54265516  1303,6782.426,92.648,405.456,403.125,0.0
53932.0,STARLINK-4772,PAYLOAD,2023-01-04 22:00:00,15.53443725,0.0001689,53.2162,108.9936,38.9218,183.2864,-0.019572,-0.01138558,0.0,0 STARLINK-4772,1 53932U 22119AY  23004.91667824 -.01138558  00000-0 -19572-1 0  9997,2 53932  53.2162 108.9936 0001689  38.9218 183.2864 15.53443725 16473,6784.816999999999,92.697,407.828,405.536,0.0
53932.0,STARLINK-4772,PAYLOAD,2023-01-05 14:00:01,15.5182866,0.0001636999999999,53.2169,105.7947,41.5767,309.0177,-0.021085,-0.01154769,0.0,0 STARLINK-4772,1 53932U 22119AY  23005.58334491 -.01154769  00000-0 -21085-1 0  9996,2 53932  53.2169 105.7947 0001637  41.5767 309.0177 15.51828660  1303,6789.524,92.794,412.5,410.278,0.0
53932.0,STARLINK-4772,PAYLOAD,2023-01-05 20:00:01,15.51196911,0.0001602,53.2171,104.5962,41.3427,266.3996,-0.0209,-0.01122272,0.0,0 STARLINK-4772,1 53932U 22119AY  23005.83334491 -.01122272  00000-0 -20900-1 0  9993,2 53932  53.2171 104.5962 0001602  41.3427 266.3996 15.51196911  1304,6791.3669999999975,92.832,414.32,412.144,0.0
53932.0,STARLINK-4772,PAYLOAD,2023-01-06 06:00:00,15.5011609,0.0001951,53.2164,102.6017,34.3105,80.7853,-0.0059881,-0.00329141,0.0,0 STARLINK-4772,1 53932U 22119AY  23006.25001157 -.00329141  00000-0 -59881-2 0  9994,2 53932  53.2164 102.6017 0001951  34.3105  80.7853 15.50116090 16684,6794.524,92.896,417.714,415.0630000000001,0.0
53932.0,STARLINK-4772,PAYLOAD,2023-01-06 22:00:00,15.49908585,0.0001496999999999,53.2138,99.4191,25.8248,211.1308,-0.00016597,-9.867e-05,0.0,0 STARLINK-4772,1 53932U 22119AY  23006.91667824 -.00009867  00000-0 -16597-3 0  9994,2 53932  53.2138  99.4191 0001497  25.8248 211.1308 15.49908585 16781,6795.13,92.909,418.012,415.978,0.0
53932.0,STARLINK-4772,PAYLOAD,2023-01-07 06:00:00,15.50085575,0.0001323,53.2155,97.8229,27.4736,270.3791,-0.0099742,-0.00533391,0.0,0 STARLINK-4772,1 53932U 22119AY  23007.25001157 -.00533391  00000-0 -99742-2 0  9999,2 53932  53.2155  97.8229 0001323  27.4736 270.3791 15.50085575  1304,6794.613,92.898,417.377,415.579,0.0
53932.0,STARLINK-4772,PAYLOAD,2023-01-07 14:00:01,15.49744323,0.0001414,53.217,96.231,41.2707,317.5225,-0.021886,-0.01116237,0.0,0 STARLINK-4772,1 53932U 22119AY  23007.58334491 -.01116237  00000-0 -21886-1 0  9995,2 53932  53.2170  96.2310 0001414  41.2707 317.5225 15.49744323 16895,6795.61,92.919,418.436,416.514,0.0
53932.0,STARLINK-4772,PAYLOAD,2023-01-08 00:00:00,15.48735408,0.0001754,53.2174,94.2396,36.8764,127.0832,-0.022907,-0.01142846,0.0,0 STARLINK-4772,1 53932U 22119AY  23008.00001157 -.01142846  00000-0 -22907-1 0  9993,2 53932  53.2174  94.2396 0001754  36.8764 127.0832 15.48735408  1302,6798.561,92.979,421.619,419.234,0.0
53932.0,STARLINK-4772,PAYLOAD,2023-01-08 06:00:00,15.48122691,0.0003139,53.2168,93.0475,285.209,193.1174,-0.0232,-0.01117714,0.0,0 STARLINK-4772,1 53932U 22119AY  23008.25001157 -.01117714  00000-0 -23200-1 0  9993,2 53932  53.2168  93.0475 0003139 285.2090 193.1174 15.48122691 16999,6800.355,93.016,424.355,420.085,0.0
53932.0,STARLINK-4772,PAYLOAD,2023-01-08 14:00:01,15.47312238,0.0001703,53.2173,91.4614,44.4125,132.2157,-0.024104,-0.01143819,0.0,0 STARLINK-4772,1 53932U 22119AY  23008.58334491 -.01143819  00000-0 -24104-1 0  9998,2 53932  53.2173  91.4614 0001703  44.4125 132.2157 15.47312238  1302,6802.729,93.065,425.753,423.436,0.0
